[{"OBJECT_NAME":"KUIPER-00042","OBJECT_ID":"2025-134D","EPOCH":"2026-03-09T21:22:19.187904","MEAN_MOTION":14.79992104,"ECCENTRICITY":0.00070968,"INCLINATION":51.8988,"RA_OF_ASC_NODE":240.7018,"ARG_OF_PERICENTER":281.3124,"MEAN_ANOMALY":78.7041,"EPHEMERIS_TYPE":0,"CLASSIFICATION_TYPE":"U","NORAD_CAT_ID":64503,"ELEMENT_SET_NO":999,"REV_AT_EPOCH":3998,"BSTAR":0.00061477157,"MEAN_MOTION_DOT":4.475e-5,"MEAN_MOTION_DDOT":0},{"OBJECT_NAME":"NOAA 16 DEB","OBJECT_ID":"2000-055MU","EPOCH":"2026-03-07T08:24:35.897472","MEAN_MOTION":14.74621786,"ECCENTRICITY":0.00249921,"INCLINATION":98.8646,"RA_OF_ASC_NODE":209.8947,"ARG_OF_PERICENTER":270.3207,"MEAN_ANOMALY":89.5136,"EPHEMERIS_TYPE":0,"CLASSIFICATION_TYPE":"U","NORAD_CAT_ID":41520,"ELEMENT_SET_NO":999,"REV_AT_EPOCH":51175,"BSTAR":0.011935935,"MEAN_MOTION_DOT":0.0008086,"MEAN_MOTION_DDOT":0}]
